CCSDS_OEM_VERS = 1.0
CREATION_DATE  = 2017-05-11T11:44:10
ORIGINATOR     = GMAT USER

META_START
OBJECT_NAME          = MOPSSat_alt_35785_km_RAAN_180_145
OBJECT_ID            = SatId
CENTER_NAME          = Earth
REF_FRAME            = EME2000
TIME_SYSTEM          = UTC
START_TIME           = 2017-01-01T00:00:00.000
USEABLE_START_TIME   = 2017-01-01T00:00:00.000
USEABLE_STOP_TIME    = 2017-01-02T00:00:00.000
STOP_TIME            = 2017-01-02T00:00:00.000
INTERPOLATION        = Lagrange
INTERPOLATION_DEGREE = 7 
META_STOP


                                                                                   

2017-01-01T07:56:40.000   5.265402215686620e+04  -2.418152079319771e+04  -9.678244755109427e-01   1.482249021680740e+00   1.451502343826952e+00  -9.155386453552221e-05
2017-01-01T07:56:50.000   5.266883925285989e+04  -2.416700329321775e+04  -9.687402114787025e-01   1.481170140557781e+00   1.451997517149094e+00  -9.159332292644321e-05
2017-01-01T07:57:00.000   5.268364556046254e+04  -2.415248084407015e+04  -9.696563419412664e-01   1.480091369713167e+00   1.452492203204097e+00  -9.163276512015269e-05
2017-01-01T07:57:10.000   5.269844108062379e+04  -2.413795345077566e+04  -9.705728667271133e-01   1.479012709098979e+00   1.452986402348592e+00  -9.167219109803639e-05
2017-01-01T07:57:20.000   5.271322581459705e+04  -2.412342111805288e+04  -9.714897856833774e-01   1.477934158645034e+00   1.453480114948887e+00  -9.171160084229554e-05
2017-01-01T07:57:30.000   5.272799976359976e+04  -2.410888385065141e+04  -9.724070986548256e-01   1.476855718283648e+00   1.453973341369606e+00  -9.175099433504217e-05
2017-01-01T07:57:40.000   5.274276292889053e+04  -2.409434165327648e+04  -9.733248054886149e-01   1.475777387944019e+00   1.454466081976284e+00  -9.179037155850421e-05
2017-01-01T07:57:50.000   5.275751531157648e+04  -2.407979453077654e+04  -9.742429060224604e-01   1.474699167566210e+00   1.454958337128908e+00  -9.182973249451302e-05
2017-01-01T07:58:00.000   5.277225691275667e+04  -2.406524248800429e+04  -9.751614000934056e-01   1.473621057090763e+00   1.455450107186731e+00  -9.186907712488472e-05
2017-01-01T07:58:10.000   5.278698773352166e+04  -2.405068552981622e+04  -9.760802875378412e-01   1.472543056458711e+00   1.455941392508242e+00  -9.190840543141907e-05
2017-01-01T07:58:20.000   5.280170777481309e+04  -2.403612366121338e+04  -9.769995681826187e-01   1.471465165621921e+00   1.456432193446507e+00  -9.194771739552441e-05
2017-01-01T07:58:30.000   5.281641703761317e+04  -2.402155688715219e+04  -9.779192418570024e-01   1.470387384529155e+00   1.456922510355476e+00  -9.198701299872373e-05
2017-01-01T07:58:40.000   5.283111552287005e+04  -2.400698521261888e+04  -9.788393083879672e-01   1.469309713131561e+00   1.457412343587489e+00  -9.202629222245545e-05
2017-01-01T07:58:50.000   5.284580323182930e+04  -2.399240864230064e+04  -9.797597676209571e-01   1.468232151358356e+00   1.457901693504335e+00  -9.206555504895862e-05
2017-01-01T07:59:00.000   5.286048016570221e+04  -2.397782718091446e+04  -9.806806193991322e-01   1.467154699141143e+00   1.458390560466188e+00  -9.210480146038720e-05
2017-01-01T07:59:10.000   5.287514632574100e+04  -2.396324083313288e+04  -9.816018635680512e-01   1.466077356408419e+00   1.458878944834122e+00  -9.214403143901071e-05
2017-01-01T07:59:20.000   5.288980171304735e+04  -2.394864960377216e+04  -9.825234999637966e-01   1.465000123099533e+00   1.459366846963717e+00  -9.218324496670441e-05
2017-01-01T07:59:30.000   5.290444632871504e+04  -2.393405349765283e+04  -9.834455284217769e-01   1.463922999154320e+00   1.459854267209826e+00  -9.222244202532846e-05
2017-01-01T07:59:40.000   5.291908017382915e+04  -2.391945251959936e+04  -9.843679487767462e-01   1.462845984513105e+00   1.460341205926546e+00  -9.226162259672671e-05
2017-01-01T07:59:50.000   5.293370324932703e+04  -2.390484667458124e+04  -9.852907608538861e-01   1.461769079127041e+00   1.460827663462605e+00  -9.230078666235165e-05
2017-01-01T08:00:00.000   5.294831555618626e+04  -2.389023596752314e+04  -9.862139644807992e-01   1.460692282944179e+00   1.461313640167604e+00  -9.233993420377083e-05
2017-01-01T08:00:10.000   5.296291709535052e+04  -2.387562040337982e+04  -9.871375594827916e-01   1.459615595914956e+00   1.461799136389550e+00  -9.237906520246675e-05
2017-01-01T08:00:20.000   5.297750786805895e+04  -2.386099998680613e+04  -9.880615457037110e-01   1.458539017967902e+00   1.462284152485819e+00  -9.241817964072106e-05
2017-01-01T08:00:30.000   5.299208787551674e+04  -2.384637472248683e+04  -9.889859229851135e-01   1.457462549033934e+00   1.462768688812186e+00  -9.245727750073039e-05
2017-01-01T08:00:40.000   5.300665711896958e+04  -2.383174461506215e+04  -9.899106911709636e-01   1.456386189040865e+00   1.463252745725324e+00  -9.249635876480673e-05
2017-01-01T08:00:50.000   5.302121559951371e+04  -2.381710966931656e+04  -9.908358500957148e-01   1.455309937927356e+00   1.463736323576459e+00  -9.253542341486798e-05
2017-01-01T08:01:00.000   5.303576331823739e+04  -2.380246989003885e+04  -9.917613995931446e-01   1.454233795632553e+00   1.464219422716097e+00  -9.257447143281722e-05
2017-01-01T08:01:10.000   5.305030027622037e+04  -2.378782528202180e+04  -9.926873394963750e-01   1.453157762096094e+00   1.464702043493998e+00  -9.261350280054111e-05
2017-01-01T08:01:20.000   5.306482647439554e+04  -2.377317585020368e+04  -9.936136696289208e-01   1.452081837268439e+00   1.465184186254602e+00  -9.265251749953779e-05
2017-01-01T08:01:30.000   5.307934191373579e+04  -2.375852159947797e+04  -9.945403898167277e-01   1.451006021096948e+00   1.465665851343217e+00  -9.269151551141960e-05
2017-01-01T08:01:40.000   5.309384659517885e+04  -2.374386253476967e+04  -9.954674998833462e-01   1.449930313531476e+00   1.466147039103525e+00  -9.273049681771079e-05
2017-01-01T08:01:50.000   5.310834051996017e+04  -2.372919866069896e+04  -9.963949996712043e-01   1.448854714499688e+00   1.466627749888629e+00  -9.276946140074123e-05
2017-01-01T08:02:00.000   5.312282368927898e+04  -2.371452998191836e+04  -9.973228890202827e-01   1.447779223931802e+00   1.467107984049976e+00  -9.280840924275070e-05
2017-01-01T08:02:10.000   5.313729610438474e+04  -2.369985650302574e+04  -9.982511677736183e-01   1.446703841754208e+00   1.467587741940227e+00  -9.284734032611964e-05
2017-01-01T08:02:20.000   5.315175776634471e+04  -2.368517822879810e+04  -9.991798357625244e-01   1.445628567906644e+00   1.468067023905531e+00  -9.288625463274657e-05
2017-01-01T08:02:30.000   5.316620867623592e+04  -2.367049516399872e+04  -1.000108892818780e+00   1.444553402328018e+00   1.468545830291913e+00  -9.292515214456253e-05
2017-01-01T08:02:40.000   5.318064883510226e+04  -2.365580731342023e+04  -1.001038338771909e+00   1.443478344959573e+00   1.469024161443845e+00  -9.296403284341588e-05
2017-01-01T08:02:50.000   5.319507824396675e+04  -2.364111468187320e+04  -1.001968173449896e+00   1.442403395744022e+00   1.469502017704662e+00  -9.300289671110487e-05
2017-01-01T08:03:00.000   5.320949690384546e+04  -2.362641727417128e+04  -1.002898396680133e+00   1.441328554624482e+00   1.469979399417014e+00  -9.304174372941520e-05
2017-01-01T08:03:10.000   5.322390481575263e+04  -2.361171509512585e+04  -1.003829008289759e+00   1.440253821544086e+00   1.470456306923042e+00  -9.308057388013419e-05
2017-01-01T08:03:20.000   5.323830198075262e+04  -2.359700814949366e+04  -1.004760008108964e+00   1.439179196442135e+00   1.470932740566098e+00  -9.311938714518989e-05
2017-01-01T08:03:30.000   5.325268839992505e+04  -2.358229644201171e+04  -1.005691395968796e+00   1.438104679256670e+00   1.471408700689588e+00  -9.315818350655830e-05
2017-01-01T08:03:40.000   5.326706407436499e+04  -2.356757997739728e+04  -1.006623171701153e+00   1.437030269924463e+00   1.471884187636982e+00  -9.319696294626302e-05
2017-01-01T08:03:50.000   5.328142900521677e+04  -2.355285876031261e+04  -1.007555335141019e+00   1.435955968378471e+00   1.472359201752926e+00  -9.323572544646811e-05
2017-01-01T08:04:00.000   5.329578319362278e+04  -2.353813279541778e+04  -1.008487886123125e+00   1.434881774551664e+00   1.472833743381555e+00  -9.327447098933904e-05
2017-01-01T08:04:10.000   5.331012664071862e+04  -2.352340208737594e+04  -1.009420824481604e+00   1.433807688377418e+00   1.473307812866331e+00  -9.331319955702907e-05
2017-01-01T08:04:20.000   5.332445934761792e+04  -2.350866664086778e+04  -1.010354150049092e+00   1.432733709790592e+00   1.473781410549535e+00  -9.335191113163889e-05
2017-01-01T08:04:30.000   5.333878131540176e+04  -2.349392646060368e+04  -1.011287862655947e+00   1.431659838728377e+00   1.474254536771933e+00  -9.339060569518776e-05
2017-01-01T08:04:40.000   5.335309254516048e+04  -2.347918155128007e+04  -1.012221962133012e+00   1.430586075127138e+00   1.474727191874143e+00  -9.342928322972643e-05
2017-01-01T08:04:50.000   5.336739303780618e+04  -2.346443191777440e+04  -1.013156448299266e+00   1.429512418936563e+00   1.475199376190466e+00  -9.346794371682999e-05
2017-01-01T08:05:00.000   5.338168279430011e+04  -2.344967756490907e+04  -1.014091320976777e+00   1.428438870102511e+00   1.475671090056380e+00  -9.350658713821292e-05
2017-01-01T08:05:10.000   5.339596181556806e+04  -2.343491849753924e+04  -1.015026579985146e+00   1.427365428573405e+00   1.476142333805749e+00  -9.354521347550042e-05
2017-01-01T08:05:20.000   5.341023010282886e+04  -2.342015472021326e+04  -1.015962225163018e+00   1.426292094275523e+00   1.476613107781662e+00  -9.358382271111600e-05
2017-01-01T08:05:30.000   5.342448765726659e+04  -2.340538623751134e+04  -1.016898256346628e+00   1.425218867137640e+00   1.477083412325626e+00  -9.362241482739588e-05
2017-01-01T08:05:40.000   5.343873448010495e+04  -2.339061305396886e+04  -1.017834673374655e+00   1.424145747085441e+00   1.477553247780012e+00  -9.366098980678973e-05
